{"type":"FeatureCollection","name":"sejong_observed_corridor_display_v1","crs":{"type":"name","properties":{"name":"EPSG:4326"}},"source":{"filename":"[2026-07-16]NODELINKDATA.zip","sha256":"adfb23b31592d264cfbc48458ae0fdb5daee707e8c7ba4dbced53c7c544c1a48","regionPrefix":"413"},"features":[{"type":"Feature","geometry":{"type":"Point","coordinates":[127.2615354,36.5085473]},"properties":{"featureType":"intersection_center","intersectionName":"성금교차로","nodeCount":4,"nodeType":"101","sourceUpdatedAt":"20250512"}},{"type":"Feature","geometry":{"type":"Point","coordinates":[127.2960878,36.5004881]},"properties":{"featureType":"intersection_center","intersectionName":"세종교차로","nodeCount":4,"nodeType":"101","sourceUpdatedAt":"20250512"}},{"type":"Feature","geometry":{"type":"Point","coordinates":[127.2677917,36.5078885]},"properties":{"featureType":"intersection_center","intersectionName":"청사교차로","nodeCount":4,"nodeType":"101","sourceUpdatedAt":"20250512"}},{"type":"Feature","geometry":{"type":"LineString","coordinates":[[127.2616892,36.5085061],[127.2629184,36.5085542],[127.2641281,36.5085037],[127.2650248,36.5084171],[127.2655207,36.5083492],[127.2656054,36.5082818],[127.2667719,36.5080598],[127.2670573,36.5079929],[127.2677322,36.5077967]]},"properties":{"featureType":"corridor_segment","routeName":"성금→청사","from":"성금교차로","to":"청사교차로","roadName":"절재로","directedLengthM":553.697,"linkCount":6,"geometryUse":"display_reference"}},{"type":"Feature","geometry":{"type":"LineString","coordinates":[[127.2678558,36.5077559],[127.2705796,36.5068066],[127.2708545,36.5067757],[127.2739065,36.5057238],[127.2749824,36.5054147],[127.2760764,36.5051502],[127.2768069,36.5050009],[127.2775429,36.5048715],[127.2845822,36.5037466],[127.2887116,36.5032125],[127.2896098,36.50304],[127.2905318,36.5028258],[127.2915788,36.5024748],[127.2947197,36.5010591],[127.295991,36.5004547]]},"properties":{"featureType":"corridor_segment","routeName":"청사→세종","from":"청사교차로","to":"세종교차로","roadName":"절재로","directedLengthM":2669.852,"linkCount":10,"geometryUse":"display_reference"}}],"limitations":["Spatial display reference only.","Intersection points are centroids of four standard NODE records.","Corridor lines follow simplified official LINK geometry.","Does not encode roundabout status, signal timing, lane-group movement, traffic demand, queue, or policy effect."]}